[{"OBJECT_NAME":"STARLINK-32717","OBJECT_ID":"2025-003E","EPOCH":"2026-03-09T22:54:16.037856","MEAN_MOTION":15.27607852,"ECCENTRICITY":0.00010326,"INCLINATION":42.9971,"RA_OF_ASC_NODE":287.3395,"ARG_OF_PERICENTER":277.3665,"MEAN_ANOMALY":82.7069,"EPHEMERIS_TYPE":0,"CLASSIFICATION_TYPE":"U","NORAD_CAT_ID":62491,"ELEMENT_SET_NO":999,"REV_AT_EPOCH":6671,"BSTAR":0.0012106883,"MEAN_MOTION_DOT":0.00033232,"MEAN_MOTION_DDOT":0},{"OBJECT_NAME":"KUIPER-00276","OBJECT_ID":"2026-030AG","EPOCH":"2026-03-09T22:00:01.999584","MEAN_MOTION":15.30162454,"ECCENTRICITY":0.00186471,"INCLINATION":51.8824,"RA_OF_ASC_NODE":218.7283,"ARG_OF_PERICENTER":66.9346,"MEAN_ANOMALY":101.1527,"EPHEMERIS_TYPE":0,"CLASSIFICATION_TYPE":"U","NORAD_CAT_ID":67794,"ELEMENT_SET_NO":999,"REV_AT_EPOCH":482,"BSTAR":0.0021152378,"MEAN_MOTION_DOT":0.00063116,"MEAN_MOTION_DDOT":0}]
